[Satellite]
VERSION=1.1
NAME=HODOYOSHI-4
NICKNAME=HODOYOSHI-4
TLE1=1 40011U 14033B   17186.19612686  .00000058  00000-0  14296-4 0  9998
TLE2=2 40011  97.8843  84.1356 0025895 210.2927 149.6793 14.80880046164421
